{
  "type": "FeatureCollection",
  "features": [
    {
      "type": "Feature",
      "properties": {
        "norad_id": 34420,
        "name": "COSMOS 2251 DEB",
        "group": "cosmos-2251-debris",
        "lat": 9.201336553464987,
        "lon": 117.82858174568217,
        "alt_km": 717.9568955290342,
        "timestamp": "2025-12-06T22:38:43.123310+00:00",
        "meta_object_name": "COSMOS 2251 DEB",
        "meta_object_id": "1993-036RM",
        "meta_epoch": "2025-12-06T16:07:47.863200",
        "meta_mean_motion": 14.68268722,
        "meta_eccentricity": 0.01068972,
        "meta_inclination": 74.0333,
        "meta_ra_of_asc_node": 115.6952,
        "meta_arg_of_pericenter": 238.2431,
        "meta_mean_anomaly": 136.1808,
        "meta_ephemeris_type": 0,
        "meta_classification_type": "U",
        "meta_norad_cat_id": 34420,
        "meta_element_set_no": 999,
        "meta_rev_at_epoch": 89681,
        "meta_bstar": 0.00045397197,
        "meta_mean_motion_dot": 2.82e-05,
        "meta_mean_motion_ddot": 0,
        "tle_line1": "1 34420U 93036RM  25340.67208175  .00002820  00000+0  45397-3 0  9996",
        "tle_line2": "2 34420  74.0333 115.6952 0106897 238.2431 136.1808 14.68268722896813"
      },
      "geometry": {
        "type": "Point",
        "coordinates": [
          117.82858174568217,
          9.201336553464987
        ]
      }
    },
    {
      "type": "Feature",
      "properties": {
        "norad_id": 34425,
        "name": "COSMOS 2251 DEB",
        "group": "cosmos-2251-debris",
        "lat": -43.04413629853451,
        "lon": -98.85159041271318,
        "alt_km": 677.5670474313774,
        "timestamp": "2025-12-06T22:38:43.123320+00:00",
        "meta_object_name": "COSMOS 2251 DEB",
        "meta_object_id": "1993-036RS",
        "meta_epoch": "2025-12-06T15:03:01.640448",
        "meta_mean_motion": 14.62073005,
        "meta_eccentricity": 0.00252599,
        "meta_inclination": 74.0208,
        "meta_ra_of_asc_node": 66.232,
        "meta_arg_of_pericenter": 194.2094,
        "meta_mean_anomaly": 165.8365,
        "meta_ephemeris_type": 0,
        "meta_classification_type": "U",
        "meta_norad_cat_id": 34425,
        "meta_element_set_no": 999,
        "meta_rev_at_epoch": 88651,
        "meta_bstar": 0.0011239247,
        "meta_mean_motion_dot": 5.644e-05,
        "meta_mean_motion_ddot": 0,
        "tle_line1": "1 34425U 93036RS  25340.62710232  .00005644  00000+0  11239-2 0  9992",
        "tle_line2": "2 34425  74.0208  66.2320 0025259 194.2094 165.8365 14.62073005886512"
      },
      "geometry": {
        "type": "Point",
        "coordinates": [
          -98.85159041271318,
          -43.04413629853451
        ]
      }
    },
    {
      "type": "Feature",
      "properties": {
        "norad_id": 34429,
        "name": "COSMOS 2251 DEB",
        "group": "cosmos-2251-debris",
        "lat": 72.78853860033452,
        "lon": -67.55175891215407,
        "alt_km": 441.2073984643175,
        "timestamp": "2025-12-06T22:38:43.123330+00:00",
        "meta_object_name": "COSMOS 2251 DEB",
        "meta_object_id": "1993-036RW",
        "meta_epoch": "2025-12-06T14:39:59.295744",
        "meta_mean_motion": 15.38556626,
        "meta_eccentricity": 0.00057615,
        "meta_inclination": 73.9708,
        "meta_ra_of_asc_node": 181.3094,
        "meta_arg_of_pericenter": 26.9622,
        "meta_mean_anomaly": 28.6105,
        "meta_ephemeris_type": 0,
        "meta_classification_type": "U",
        "meta_norad_cat_id": 34429,
        "meta_element_set_no": 999,
        "meta_rev_at_epoch": 89354,
        "meta_bstar": 0.0066587866,
        "meta_mean_motion_dot": 0.00262582,
        "meta_mean_motion_ddot": 0,
        "tle_line1": "1 34429U 93036RW  25340.61110296  .00262582  00000+0  66588-2 0  9992",
        "tle_line2": "2 34429  73.9708 181.3094 0005761  26.9622  28.6105 15.38556626893548"
      },
      "geometry": {
        "type": "Point",
        "coordinates": [
          -67.55175891215407,
          72.78853860033452
        ]
      }
    },
    {
      "type": "Feature",
      "properties": {
        "norad_id": 34430,
        "name": "COSMOS 2251 DEB",
        "group": "cosmos-2251-debris",
        "lat": 59.80153132994492,
        "lon": 104.6276325534827,
        "alt_km": 753.9907741525867,
        "timestamp": "2025-12-06T22:38:43.123340+00:00",
        "meta_object_name": "COSMOS 2251 DEB",
        "meta_object_id": "1993-036RX",
        "meta_epoch": "2025-12-06T08:46:15.359520",
        "meta_mean_motion": 14.39601147,
        "meta_eccentricity": 0.00600664,
        "meta_inclination": 74.0519,
        "meta_ra_of_asc_node": 315.1226,
        "meta_arg_of_pericenter": 26.3532,
        "meta_mean_anomaly": 334.0656,
        "meta_ephemeris_type": 0,
        "meta_classification_type": "U",
        "meta_norad_cat_id": 34430,
        "meta_element_set_no": 999,
        "meta_rev_at_epoch": 87863,
        "meta_bstar": 0.00098204184,
        "meta_mean_motion_dot": 3.109e-05,
        "meta_mean_motion_ddot": 0,
        "tle_line1": "1 34430U 93036RX  25340.36545555  .00003109  00000+0  98204-3 0  9995",
        "tle_line2": "2 34430  74.0519 315.1226 0060066  26.3532 334.0656 14.39601147878636"
      },
      "geometry": {
        "type": "Point",
        "coordinates": [
          104.6276325534827,
          59.80153132994492
        ]
      }
    },
    {
      "type": "Feature",
      "properties": {
        "norad_id": 34431,
        "name": "COSMOS 2251 DEB",
        "group": "cosmos-2251-debris",
        "lat": -59.97784315243095,
        "lon": 35.30115777541393,
        "alt_km": 786.5469102749576,
        "timestamp": "2025-12-06T22:38:43.123350+00:00",
        "meta_object_name": "COSMOS 2251 DEB",
        "meta_object_id": "1993-036RY",
        "meta_epoch": "2025-12-06T14:47:17.258208",
        "meta_mean_motion": 14.28746017,
        "meta_eccentricity": 0.00685471,
        "meta_inclination": 74.0746,
        "meta_ra_of_asc_node": 186.2835,
        "meta_arg_of_pericenter": 173.6442,
        "meta_mean_anomaly": 186.5594,
        "meta_ephemeris_type": 0,
        "meta_classification_type": "U",
        "meta_norad_cat_id": 34431,
        "meta_element_set_no": 999,
        "meta_rev_at_epoch": 87055,
        "meta_bstar": 0.0010538031,
        "meta_mean_motion_dot": 2.696e-05,
        "meta_mean_motion_ddot": 0,
        "tle_line1": "1 34431U 93036RY  25340.61617197  .00002696  00000+0  10538-2 0  9999",
        "tle_line2": "2 34431  74.0746 186.2835 0068547 173.6442 186.5594 14.28746017870558"
      },
      "geometry": {
        "type": "Point",
        "coordinates": [
          35.30115777541393,
          -59.97784315243095
        ]
      }
    },
    {
      "type": "Feature",
      "properties": {
        "norad_id": 34432,
        "name": "COSMOS 2251 DEB",
        "group": "cosmos-2251-debris",
        "lat": 62.01540522268657,
        "lon": 145.63503318920368,
        "alt_km": 959.9706865686285,
        "timestamp": "2025-12-06T22:38:43.123361+00:00",
        "meta_object_name": "COSMOS 2251 DEB",
        "meta_object_id": "1993-036RZ",
        "meta_epoch": "2025-12-06T08:46:21.025632",
        "meta_mean_motion": 14.0286413,
        "meta_eccentricity": 0.01829638,
        "meta_inclination": 73.8287,
        "meta_ra_of_asc_node": 113.5547,
        "meta_arg_of_pericenter": 197.2086,
        "meta_mean_anomaly": 193.191,
        "meta_ephemeris_type": 0,
        "meta_classification_type": "U",
        "meta_norad_cat_id": 34432,
        "meta_element_set_no": 999,
        "meta_rev_at_epoch": 85595,
        "meta_bstar": 0.0022305439,
        "meta_mean_motion_dot": 3.98e-05,
        "meta_mean_motion_ddot": 0,
        "tle_line1": "1 34432U 93036RZ  25340.36552113  .00003980  00000+0  22305-2 0  9990",
        "tle_line2": "2 34432  73.8287 113.5547 0182963 197.2086 193.1910 14.02864130855956"
      },
      "geometry": {
        "type": "Point",
        "coordinates": [
          145.63503318920368,
          62.01540522268657
        ]
      }
    },
    {
      "type": "Feature",
      "properties": {
        "norad_id": 34433,
        "name": "COSMOS 2251 DEB",
        "group": "cosmos-2251-debris",
        "lat": -59.810953589418915,
        "lon": 14.730786345787052,
        "alt_km": 801.2574320344129,
        "timestamp": "2025-12-06T22:38:43.123371+00:00",
        "meta_object_name": "COSMOS 2251 DEB",
        "meta_object_id": "1993-036SA",
        "meta_epoch": "2025-12-05T23:23:16.964160",
        "meta_mean_motion": 14.1280661,
        "meta_eccentricity": 0.01517938,
        "meta_inclination": 74.0117,
        "meta_ra_of_asc_node": 166.9196,
        "meta_arg_of_pericenter": 306.4385,
        "meta_mean_anomaly": 52.284,
        "meta_ephemeris_type": 0,
        "meta_classification_type": "U",
        "meta_norad_cat_id": 34433,
        "meta_element_set_no": 999,
        "meta_rev_at_epoch": 85854,
        "meta_bstar": 0.0020892671,
        "meta_mean_motion_dot": 4.307e-05,
        "meta_mean_motion_ddot": 0,
        "tle_line1": "1 34433U 93036SA  25339.97450190  .00004307  00000+0  20893-2 0  9992",
        "tle_line2": "2 34433  74.0117 166.9196 0151793 306.4385  52.2840 14.12806610858542"
      },
      "geometry": {
        "type": "Point",
        "coordinates": [
          14.730786345787052,
          -59.810953589418915
        ]
      }
    }
  ]
}